{"type": "FeatureCollection", "features": [ {"type": "Feature", "properties": {"norad_id": 64202, "name": "GPS BIII-8  (PRN 21)", "group": "gnss", "lat": 36.18771147652517, "lon": -172.11427768438747, "alt_km": 20193.077151061436, "timestamp": "2025-12-15T07:02:37.862572+00:00", "meta": {"OBJECT_NAME": "GPS BIII-8  (PRN 21)", "OBJECT_ID": "2025-116A", "EPOCH": "2025-12-14T02:46:13.653120", "MEAN_MOTION": 2.00558299, "ECCENTRICITY": 0.00056153, "INCLINATION": 55.1067, "RA_OF_ASC_NODE": 38.5851, "ARG_OF_PERICENTER": 308.147, "MEAN_ANOMALY": 55.2369, "EPHEMERIS_TYPE": 0, "CLASSIFICATION_TYPE": "U", "NORAD_CAT_ID": 64202, "ELEMENT_SET_NO": 999, "REV_AT_EPOCH": 416, "BSTAR": 0, "MEAN_MOTION_DOT": -9.6e-07, "MEAN_MOTION_DDOT": 0}, "tle": {"line1": "1 64202U 25116A   25348.11543580 -.00000096  00000+0  00000+0 0  9992", "line2": "2 64202  55.1067  38.5851 0005615 308.1470  55.2369  2.00558299  4161"}}, "geometry": {"type": "Point", "coordinates": [-172.11427768438747, 36.18771147652517]}}, {"type": "Feature", "properties": {"norad_id": 65590, "name": "COSMOS 2596 (708K)", "group": "gnss", "lat": -15.096819884299183, "lon": 148.6893429090486, "alt_km": 19144.643579390868, "timestamp": "2025-12-15T07:02:37.862584+00:00", "meta": {"OBJECT_NAME": "COSMOS 2596 (708K)", "OBJECT_ID": "2025-206B", "EPOCH": "2025-12-14T19:11:43.005984", "MEAN_MOTION": 2.13100538, "ECCENTRICITY": 0.00140549, "INCLINATION": 64.743, "RA_OF_ASC_NODE": 321.4024, "ARG_OF_PERICENTER": 306.7253, "MEAN_ANOMALY": 231.3639, "EPHEMERIS_TYPE": 0, "CLASSIFICATION_TYPE": "U", "NORAD_CAT_ID": 65590, "ELEMENT_SET_NO": 999, "REV_AT_EPOCH": 198, "BSTAR": 0, "MEAN_MOTION_DOT": -6.7e-07, "MEAN_MOTION_DDOT": 0}, "tle": {"line1": "1 65590U 25206B   25348.79980331 -.00000067  00000+0  00000+0 0  9994", "line2": "2 65590  64.7430 321.4024 0014054 306.7253 231.3639  2.13100538  1985"}}, "geometry": {"type": "Point", "coordinates": [148.6893429090486, -15.096819884299183]}}]}